0 FENGYUN 1C DEB
1 33726U 99025DHP 13286.23837230  .00000663  00000-0  33899-3 0  3358
2 33726 098.6894 197.4373 0207601 092.0195 059.3321 14.08075489294085
0 FENGYUN 1C DEB
1 33726U 99025DHP 13288.99209612  .00000567  00000-0  29285-3 0  3368
2 33726 098.6896 200.0910 0207601 084.2629 338.1341 14.08082532294470
0 FENGYUN 1C DEB
1 33726U 99025DHP 13295.51756723  .00000424  00000-0  22374-3 0  3379
2 33726 098.6898 206.3772 0208422 065.9611 296.2865 14.08086474295381
0 FENGYUN 1C DEB
1 33726U 99025DHP 13295.54139153  .00000684  00000-0  34908-3 0  3389
2 33726 098.6891 206.4033 0207498 065.8253 057.1472 14.08088940295397
